STARLINK-36167
1 67011U 25293J   26092.80380113 -.00074680  00000+0 -63657-2 0  9994
2 67011  70.0037  33.5043 0001587 292.3081  67.7910 14.98042476 18507
